{
  "type": "FeatureCollection",
  "features": [
    {
      "type": "Feature",
      "properties": {
        "norad_id": 37985,
        "name": "COSMOS 2251 DEB",
        "group": "cosmos-2251-debris",
        "lat": 1.9708370403700801,
        "lon": -98.99103881549587,
        "alt_km": 761.8036621133315,
        "timestamp": "2025-12-15T14:57:58.209491+00:00",
        "meta_object_name": "COSMOS 2251 DEB",
        "meta_object_id": "1993-036BQL",
        "meta_epoch": "2025-12-14T12:11:43.486080",
        "meta_mean_motion": 14.35483597,
        "meta_eccentricity": 0.00208601,
        "meta_inclination": 74.0254,
        "meta_ra_of_asc_node": 262.4907,
        "meta_arg_of_pericenter": 24.7118,
        "meta_mean_anomaly": 335.5029,
        "meta_ephemeris_type": 0,
        "meta_classification_type": "U",
        "meta_norad_cat_id": 37985,
        "meta_element_set_no": 999,
        "meta_rev_at_epoch": 64942,
        "meta_bstar": 6.1585039e-05,
        "meta_mean_motion_dot": 1.51e-06,
        "meta_mean_motion_ddot": 0,
        "tle_line1": "1 37985U 93036BQL 25348.50814220  .00000151  00000+0  61585-4 0  9992",
        "tle_line2": "2 37985  74.0254 262.4907 0020860  24.7118 335.5029 14.35483597649426"
      },
      "geometry": {
        "type": "Point",
        "coordinates": [
          -98.99103881549587,
          1.9708370403700801
        ]
      }
    },
    {
      "type": "Feature",
      "properties": {
        "norad_id": 37988,
        "name": "COSMOS 2251 DEB",
        "group": "cosmos-2251-debris",
        "lat": -10.293728251992455,
        "lon": 15.478375833492882,
        "alt_km": 649.9550709556361,
        "timestamp": "2025-12-15T14:57:58.209500+00:00",
        "meta_object_name": "COSMOS 2251 DEB",
        "meta_object_id": "1993-036BQP",
        "meta_epoch": "2025-12-13T02:32:08.304288",
        "meta_mean_motion": 14.68869924,
        "meta_eccentricity": 0.00633699,
        "meta_inclination": 74.0635,
        "meta_ra_of_asc_node": 23.3163,
        "meta_arg_of_pericenter": 60.7739,
        "meta_mean_anomaly": 299.9748,
        "meta_ephemeris_type": 0,
        "meta_classification_type": "U",
        "meta_norad_cat_id": 37988,
        "meta_element_set_no": 999,
        "meta_rev_at_epoch": 23401,
        "meta_bstar": 0.001172646,
        "meta_mean_motion_dot": 7.043e-05,
        "meta_mean_motion_ddot": 0,
        "tle_line1": "1 37988U 93036BQP 25347.10565167  .00007043  00000+0  11726-2 0  9990",
        "tle_line2": "2 37988  74.0635  23.3163 0063369  60.7739 299.9748 14.68869924234014"
      },
      "geometry": {
        "type": "Point",
        "coordinates": [
          15.478375833492882,
          -10.293728251992455
        ]
      }
    },
    {
      "type": "Feature",
      "properties": {
        "norad_id": 37993,
        "name": "COSMOS 2251 DEB",
        "group": "cosmos-2251-debris",
        "lat": 33.36989528786044,
        "lon": 172.28567683450953,
        "alt_km": 703.6602915294015,
        "timestamp": "2025-12-15T14:57:58.209509+00:00",
        "meta_object_name": "COSMOS 2251 DEB",
        "meta_object_id": "1993-036BQU",
        "meta_epoch": "2025-12-13T18:24:10.533312",
        "meta_mean_motion": 14.59930362,
        "meta_eccentricity": 0.00219521,
        "meta_inclination": 74.0211,
        "meta_ra_of_asc_node": 164.9521,
        "meta_arg_of_pericenter": 253.5703,
        "meta_mean_anomaly": 106.305,
        "meta_ephemeris_type": 0,
        "meta_classification_type": "U",
        "meta_norad_cat_id": 37993,
        "meta_element_set_no": 999,
        "meta_rev_at_epoch": 65332,
        "meta_bstar": 0.0016210604,
        "meta_mean_motion_dot": 7.772e-05,
        "meta_mean_motion_ddot": 0,
        "tle_line1": "1 37993U 93036BQU 25347.76678858  .00007772  00000+0  16211-2 0  9993",
        "tle_line2": "2 37993  74.0211 164.9521 0021952 253.5703 106.3050 14.59930362653326"
      },
      "geometry": {
        "type": "Point",
        "coordinates": [
          172.28567683450953,
          33.36989528786044
        ]
      }
    },
    {
      "type": "Feature",
      "properties": {
        "norad_id": 37994,
        "name": "COSMOS 2251 DEB",
        "group": "cosmos-2251-debris",
        "lat": -73.96542340021644,
        "lon": -174.50608367734606,
        "alt_km": 763.1784819700079,
        "timestamp": "2025-12-15T14:57:58.209518+00:00",
        "meta_object_name": "COSMOS 2251 DEB",
        "meta_object_id": "1993-036BQV",
        "meta_epoch": "2025-12-14T21:01:48.810432",
        "meta_mean_motion": 14.3962818,
        "meta_eccentricity": 0.00230092,
        "meta_inclination": 74.0362,
        "meta_ra_of_asc_node": 271.7433,
        "meta_arg_of_pericenter": 350.7849,
        "meta_mean_anomaly": 9.288,
        "meta_ephemeris_type": 0,
        "meta_classification_type": "U",
        "meta_norad_cat_id": 37994,
        "meta_element_set_no": 999,
        "meta_rev_at_epoch": 77095,
        "meta_bstar": 0.00038001309,
        "meta_mean_motion_dot": 1.165e-05,
        "meta_mean_motion_ddot": 0,
        "tle_line1": "1 37994U 93036BQV 25348.87625938  .00001165  00000+0  38001-3 0  9990",
        "tle_line2": "2 37994  74.0362 271.7433 0023009 350.7849   9.2880 14.39628180770950"
      },
      "geometry": {
        "type": "Point",
        "coordinates": [
          -174.50608367734606,
          -73.96542340021644
        ]
      }
    },
    {
      "type": "Feature",
      "properties": {
        "norad_id": 37996,
        "name": "COSMOS 2251 DEB",
        "group": "cosmos-2251-debris",
        "lat": -57.55073837036815,
        "lon": 44.82376761698689,
        "alt_km": 797.1064598547091,
        "timestamp": "2025-12-15T14:57:58.209527+00:00",
        "meta_object_name": "COSMOS 2251 DEB",
        "meta_object_id": "1993-036BQX",
        "meta_epoch": "2025-11-16T18:35:00.708864",
        "meta_mean_motion": 14.09591608,
        "meta_eccentricity": 0.02219827,
        "meta_inclination": 74.0658,
        "meta_ra_of_asc_node": 248.8308,
        "meta_arg_of_pericenter": 5.4709,
        "meta_mean_anomaly": 354.8776,
        "meta_ephemeris_type": 0,
        "meta_classification_type": "U",
        "meta_norad_cat_id": 37996,
        "meta_element_set_no": 999,
        "meta_rev_at_epoch": 55769,
        "meta_bstar": 0.0096790999,
        "meta_mean_motion_dot": 0.00021331,
        "meta_mean_motion_ddot": 0,
        "tle_line1": "1 37996U 93036BQX 25320.77431376  .00021331  00000+0  96791-2 0  9998",
        "tle_line2": "2 37996  74.0658 248.8308 0221982   5.4709 354.8776 14.09591608557693"
      },
      "geometry": {
        "type": "Point",
        "coordinates": [
          44.82376761698689,
          -57.55073837036815
        ]
      }
    },
    {
      "type": "Feature",
      "properties": {
        "norad_id": 37998,
        "name": "COSMOS 2251 DEB",
        "group": "cosmos-2251-debris",
        "lat": -51.66066023915045,
        "lon": 70.95118942459044,
        "alt_km": 741.6314275506647,
        "timestamp": "2025-12-15T14:57:58.209535+00:00",
        "meta_object_name": "COSMOS 2251 DEB",
        "meta_object_id": "1993-036BQZ",
        "meta_epoch": "2025-12-07T01:34:33.386016",
        "meta_mean_motion": 14.45444842,
        "meta_eccentricity": 0.00199405,
        "meta_inclination": 74.0387,
        "meta_ra_of_asc_node": 245.6796,
        "meta_arg_of_pericenter": 320.6712,
        "meta_mean_anomaly": 39.2997,
        "meta_ephemeris_type": 0,
        "meta_classification_type": "U",
        "meta_norad_cat_id": 37998,
        "meta_element_set_no": 999,
        "meta_rev_at_epoch": 64205,
        "meta_bstar": 0.00093558552,
        "meta_mean_motion_dot": 3.277e-05,
        "meta_mean_motion_ddot": 0,
        "tle_line1": "1 37998U 93036BQZ 25341.06566419  .00003277  00000+0  93559-3 0  9991",
        "tle_line2": "2 37998  74.0387 245.6796 0019940 320.6712  39.2997 14.45444842642056"
      },
      "geometry": {
        "type": "Point",
        "coordinates": [
          70.95118942459044,
          -51.66066023915045
        ]
      }
    },
    {
      "type": "Feature",
      "properties": {
        "norad_id": 38001,
        "name": "COSMOS 2251 DEB",
        "group": "cosmos-2251-debris",
        "lat": -0.29273394886125353,
        "lon": -53.2707073515373,
        "alt_km": 638.6666756796585,
        "timestamp": "2025-12-15T14:57:58.209545+00:00",
        "meta_object_name": "COSMOS 2251 DEB",
        "meta_object_id": "1993-036BRC",
        "meta_epoch": "2025-12-12T20:16:35.165280",
        "meta_mean_motion": 14.79078189,
        "meta_eccentricity": 0.00654432,
        "meta_inclination": 74.0015,
        "meta_ra_of_asc_node": 132.1204,
        "meta_arg_of_pericenter": 281.6012,
        "meta_mean_anomaly": 229.3519,
        "meta_ephemeris_type": 0,
        "meta_classification_type": "U",
        "meta_norad_cat_id": 38001,
        "meta_element_set_no": 999,
        "meta_rev_at_epoch": 74709,
        "meta_bstar": 0.0011942627,
        "meta_mean_motion_dot": 9.141e-05,
        "meta_mean_motion_ddot": 0,
        "tle_line1": "1 38001U 93036BRC 25346.84485145  .00009141  00000+0  11943-2 0  9996",
        "tle_line2": "2 38001  74.0015 132.1204 0065443 281.6012 229.3519 14.79078189747098"
      },
      "geometry": {
        "type": "Point",
        "coordinates": [
          -53.2707073515373,
          -0.29273394886125353
        ]
      }
    }
  ]
}